0 NIMBUS 2 DEB
1 28618U 66040AH  13281.62223529  .00002572  00000-0  34897-2 0  3103
2 28618 100.2436 068.0186 0053569 312.4538 103.4780 13.59818510520322
0 NIMBUS 2 DEB
1 28618U 66040AH  13282.65261753  .00002447  00000-0  33223-2 0  3112
2 28618 100.2432 069.0960 0053911 309.7423 107.7117 13.59821940520469
0 NIMBUS 2 DEB
1 28618U 66040AH  13284.21112389  .00002921  00000-0  39524-2 0  3124
2 28618 100.2424 070.7248 0054261 305.7977 177.2787 13.59832114520681
0 NIMBUS 2 DEB
1 28618U 66040AH  13286.62576538  .00002849  00000-0  38539-2 0  3136
2 28618 100.2414 073.2475 0054913 299.7272 118.0452 13.59844346521003
0 NIMBUS 2 DEB
1 28618U 66040AH  13287.65546852  .00003173  00000-0  42846-2 0  3144
2 28618 100.2413 074.3227 0055186 297.2183 118.8646 13.59850353521149
0 NIMBUS 2 DEB
1 28618U 66040AH  13290.37171612  .00003281  00000-0  44257-2 0  3154
2 28618 100.2404 077.1616 0055888 290.4213 096.3105 13.59867946521517
0 NIMBUS 2 DEB
1 28618U 66040AH  13291.62840601  .00003170  00000-0  42763-2 0  3162
2 28618 100.2406 078.4747 0056263 287.3842 128.4107 13.59875436521689
0 NIMBUS 2 DEB
1 28618U 66040AH  13294.88603116  .00003713  00000-0  49945-2 0  3174
2 28618 100.2409 081.8782 0057134 279.7002 236.0273 13.59895913522133
